H1 CPF 01  gfz 2022 01 26 01  5261 tandemx   
H2 1003001  6202 36605    2022 01 26 00 59 42 2022 01 31 00 00 42   120 1 1  0 0 0
H9
10 0 59606  33102.000000  0    2523027.788  -3767094.043  -5193697.756
10 0 59606  33222.000000  0    1949951.269  -3293537.150  -5734578.032
10 0 59606  33342.000000  0    1351913.668  -2752577.463  -6175234.349
10 0 59606  33462.000000  0     740414.020  -2153307.097  -6508055.681
10 0 59606  33582.000000  0     126994.774  -1506007.926  -6727306.661
10 0 59606  33702.000000  0    -476972.524   -821974.000  -6829215.780
10 0 59606  33822.000000  0   -1060492.496   -113316.691  -6812032.404
10 0 59606  33942.000000  0   -1613141.363    607244.928  -6676053.083
10 0 59606  34062.000000  0   -2125248.918   1326606.402  -6423616.600
10 0 59606  34182.000000  0   -2588063.833   2031510.349  -6059068.091
10 0 59606  34302.000000  0   -2993901.885   2708785.264  -5588692.946
10 0 59606  34422.000000  0   -3336274.572   3345589.259  -5020619.828
10 0 59606  34542.000000  0   -3609996.745   3929653.942  -4364691.945
10 0 59606  34662.000000  0   -3811269.681   4449523.616  -3632306.120
10 0 59606  34782.000000  0   -3937736.260   4894784.050  -2836222.618
10 0 59606  34902.000000  0   -3988508.957   5256276.678  -1990349.482
10 0 59606  35022.000000  0   -3964170.174   5526293.754  -1109502.635
10 0 59606  35142.000000  0   -3866742.589   5698749.743   -209144.374
10 0 59606  35262.000000  0   -3699629.143   5769320.620    694893.732
10 0 59606  35382.000000  0   -3467525.824   5735549.867   1586696.873
10 0 59606  35502.000000  0   -3176306.637   5596917.842   2450557.727
10 0 59606  35622.000000  0   -2832883.542   5354869.406   3271263.080
10 0 59606  35742.000000  0   -2445047.203   5012801.394   4034367.785
10 0 59606  35862.000000  0   -2021292.503   4576012.037   4726452.955
10 0 59606  35982.000000  0   -1570633.377   4051612.836   5335363.418
10 0 59606  36102.000000  0   -1102410.512   3448404.979   5850420.337
10 0 59606  36222.000000  0    -626097.412   2776723.386   6262603.966
10 0 59606  36342.000000  0    -151109.264   2048252.847   6564705.302
10 0 59606  36462.000000  0     313381.954   1275821.082   6751446.159
10 0 59606  36582.000000  0     758623.930    473169.932   6819566.090
10 0 59606  36702.000000  0    1176447.784   -345288.920   6767874.791
10 0 59606  36822.000000  0    1559417.016  -1164731.744   6597272.704
10 0 59606  36942.000000  0    1900959.802  -1970190.717   6310736.428
10 0 59606  37062.000000  0    2195482.354  -2746827.053   5913270.927
10 0 59606  37182.000000  0    2438461.961  -3480206.135   5411827.465
10 0 59606  37302.000000  0    2626517.487  -4156568.766   4815187.257
10 0 59606  37422.000000  0    2757456.323  -4763093.868   4133813.758
10 0 59606  37542.000000  0    2830297.965  -5288148.531   3379673.045
10 0 59606  37662.000000  0    2845271.808  -5721518.933   2566025.421
10 0 59606  37782.000000  0    2803789.373  -6054617.403   1707190.636
10 0 59606  37902.000000  0    2708390.878  -6280658.021    818291.629
10 0 59606  38022.000000  0    2562669.486  -6394799.228    -85016.683
10 0 59606  38142.000000  0    2371173.410  -6394249.782   -986831.622
10 0 59606  38262.000000  0    2139287.383  -6278331.546  -1871293.212
10 0 59606  38382.000000  0    1873097.442  -6048499.777  -2722870.534
10 0 59606  38502.000000  0    1579242.076  -5708320.967  -3526642.129
10 0 59606  38622.000000  0    1264754.431  -5263405.369  -4268559.213
10 0 59606  38742.000000  0     936901.998  -4721302.853  -4935689.472
10 0 59606  38862.000000  0     603024.925  -4091363.144  -5516437.089
10 0 59606  38982.000000  0     270377.350  -3384564.309  -6000736.247
10 0 59606  39102.000000  0     -54024.850  -2613313.289  -6380214.998
10 0 59606  39222.000000  0    -363546.777  -1791223.591  -6648328.435
10 0 59606  39342.000000  0    -652065.320   -932874.405  -6800460.797
10 0 59606  39462.000000  0    -914085.636    -53554.562  -6833997.002
10 0 59606  39582.000000  0   -1144842.341    831004.817  -6748361.628
10 0 59606  39702.000000  0   -1340384.053   1704904.283  -6545027.311
10 0 59606  39822.000000  0   -1497639.533   2552354.620  -6227491.866
10 0 59606  39942.000000  0   -1614465.403   3357956.148  -5801226.198
10 0 59606  40062.000000  0   -1689674.746   4106976.403  -5273589.661
10 0 59606  40182.000000  0   -1723045.488   4785620.167  -4653714.625
10 0 59606  40302.000000  0   -1715309.130   5381288.749  -3952359.271
10 0 59606  40422.000000  0   -1668118.732   5882821.264  -3181729.466
10 0 59606  40542.000000  0   -1583996.494   6280712.883  -2355273.440
10 0 59606  40662.000000  0   -1466262.731   6567306.775  -1487451.344
10 0 59606  40782.000000  0   -1318946.716   6736952.562   -593481.777
10 0 59606  40902.000000  0   -1146681.811   6786127.842    310927.504
10 0 59606  41022.000000  0    -954586.585   6713520.102   1209862.709
10 0 59606  41142.000000  0    -748135.552   6520062.318   2087495.193
10 0 59606  41262.000000  0    -533022.497   6208920.297   2928369.546
10 0 59606  41382.000000  0    -315020.313   5785436.567   3717682.048
10 0 59606  41502.000000  0     -99841.561   5257033.091   4441545.925
10 0 59606  41622.000000  0     106997.762   4633072.598   5087242.188
10 0 59606  41742.000000  0     300309.064   3924678.422   5643440.829
10 0 59606  41862.000000  0     475351.171   3144529.461   6100395.249
10 0 59606  41982.000000  0     627937.708   2306624.690   6450109.308
10 0 59606  42102.000000  0     754529.936   1426026.273   6686470.695
10 0 59606  42222.000000  0     852313.560    518585.103   6805351.922
10 0 59606  42342.000000  0     919257.983   -399344.826   6804676.988
10 0 59606  42462.000000  0     954157.138  -1311199.960   6684456.534
10 0 59606  42582.000000  0     956651.166  -2200505.939   6446788.161
10 0 59606  42702.000000  0     927228.650  -3051175.347   6095822.818
10 0 59606  42822.000000  0     867208.821  -3847801.084   5637695.721
10 0 59606  42942.000000  0     778704.975  -4575936.956   5080423.194
10 0 59606  43062.000000  0     664570.382  -5222363.527   4433769.314
10 0 59606  43182.000000  0     528326.578  -5775336.674   3709081.413
10 0 59606  43302.000000  0     374074.816  -6224811.622   2919093.789
10 0 59606  43422.000000  0     206393.077  -6562635.771   2077703.737
10 0 59606  43542.000000  0      30220.662  -6782705.302   1199724.631
10 0 59606  43662.000000  0    -149266.144  -6881084.643    300620.516
10 0 59606  43782.000000  0    -326785.650  -6856082.185   -603775.949
10 0 59606  43902.000000  0    -497084.426  -6708278.447  -1497552.374
10 0 59606  44022.000000  0    -655069.826  -6440508.179  -2365004.624
10 0 59606  44142.000000  0    -795938.497  -6057799.009  -3190918.850
10 0 59606  44262.000000  0    -915297.924  -5567267.117  -3960842.799
10 0 59606  44382.000000  0   -1009277.564  -4977972.052  -4661339.720
10 0 59606  44502.000000  0   -1074626.917  -4300736.455  -5280218.760
10 0 59606  44622.000000  0   -1108798.737  -3547936.522  -5806739.846
10 0 59606  44742.000000  0   -1110015.467  -2733267.561  -6231790.636
10 0 59606  44862.000000  0   -1077318.032  -1871489.421  -6548033.338
10 0 59606  44982.000000  0   -1010596.432   -978157.700  -6750019.720
10 0 59606  45102.000000  0    -910602.123    -69345.561  -6834275.388
10 0 59606  45222.000000  0    -778941.127    838640.449  -6799352.403
10 0 59606  45342.000000  0    -618048.343   1729545.308  -6645850.862
10 0 59606  45462.000000  0    -431144.316   2587448.917  -6376409.722
10 0 59606  45582.000000  0    -222174.208   3397044.573  -5995667.720
10 0 59606  45702.000000  0       4271.097   4143910.052  -5510192.513
10 0 59606  45822.000000  0     243049.701   4814764.466  -4928377.478
10 0 59606  45942.000000  0     488577.479   5397708.958  -4260308.547
10 0 59606  46062.000000  0     734949.788   5882446.286  -3517599.515
10 0 59606  46182.000000  0     976073.633   6260473.232  -2713198.077
10 0 59606  46302.000000  0    1205807.524   6525242.213  -1861165.359
10 0 59606  46422.000000  0    1418106.000   6672287.567   -976431.160
10 0 59606  46542.000000  0    1607165.420   6699311.997    -74529.252
10 0 59606  46662.000000  0    1767566.921   6606229.331    828681.715
10 0 59606  46782.000000  0    1894412.112   6395163.118   1717304.437
10 0 59606  46902.000000  0    1983449.198   6070401.579   2575690.776
10 0 59606  47022.000000  0    2031186.013   5638309.410   3388725.039
10 0 59606  47142.000000  0    2034986.895   5107198.908   4142097.728
10 0 59606  47262.000000  0    1993150.052   4487162.126   4822562.902
10 0 59606  47382.000000  0    1904964.875   3789867.597   5418173.466
10 0 59606  47502.000000  0    1770746.725   3028330.896   5918486.485
10 0 59606  47622.000000  0    1591850.829   2216665.706   6314741.980
10 0 59606  47742.000000  0    1370663.371   1369816.353   6600011.612
10 0 59606  47862.000000  0    1110570.606    503278.220   6769313.077
10 0 59606  47982.000000  0     815906.898   -367185.950   6819690.566
10 0 59606  48102.000000  0     491882.411  -1225831.534   6750264.684
10 0 59606  48222.000000  0     144490.788  -2057217.096   6562247.344
10 0 59606  48342.000000  0    -219601.768  -2846482.056   6258921.921
10 0 59606  48462.000000  0    -593183.358  -3579613.725   5845587.945
10 0 59606  48582.000000  0    -968636.251  -4243696.485   5329472.128
10 0 59606  48702.000000  0   -1338089.000  -4827142.454   4719610.306
10 0 59606  48822.000000  0   -1693579.989  -5319902.146   4026697.285
10 0 59606  48942.000000  0   -2027227.184  -5713647.972   3262902.785
10 0 59606  49062.000000  0   -2331400.563  -6001923.836   2441657.957
10 0 59606  49182.000000  0   -2598893.072  -6180258.238   1577417.486
10 0 59606  49302.000000  0   -2823085.482  -6246239.201    685400.603
10 0 59606  49422.000000  0   -2998101.317  -6199548.220   -218683.897
10 0 59606  49542.000000  0   -3118947.831  -6041952.045  -1118922.755
99
